{
    "links": {
        "self": "http://www.neowsapp.com/rest/v1/neo/3154351?api_key=iIulBulltgU6a56xZRHN4H3l9WmuAYTsLGpBGhQ2"
    },
    "id": "3154351",
    "neo_reference_id": "3154351",
    "name": "(2003 JG4)",
    "designation": "2003 JG4",
    "nasa_jpl_url": "http://ssd.jpl.nasa.gov/sbdb.cgi?sstr=3154351",
    "absolute_magnitude_h": 22.9,
    "estimated_diameter": {
        "kilometers": {
            "estimated_diameter_min": 0.0699125232,
            "estimated_diameter_max": 0.1563291544
        },
        "meters": {
            "estimated_diameter_min": 69.9125232246,
            "estimated_diameter_max": 156.3291544087
        },
        "miles": {
            "estimated_diameter_min": 0.0434416145,
            "estimated_diameter_max": 0.097138403
        },
        "feet": {
            "estimated_diameter_min": 229.3718026961,
            "estimated_diameter_max": 512.8909429502
        }
    },
    "is_potentially_hazardous_asteroid": false,
    "close_approach_data": [
        {
            "close_approach_date": "2003-04-21",
            "close_approach_date_full": "2003-Apr-21 15:57",
            "epoch_date_close_approach": 1050940620000,
            "relative_velocity": {
                "kilometers_per_second": "2.6477955884",
                "kilometers_per_hour": "9532.0641182676",
                "miles_per_hour": "5922.8539517091"
            },
            "miss_distance": {
                "astronomical": "0.2479263791",
                "lunar": "96.4433614699",
                "kilometers": "37089258.230172517",
                "miles": "23046196.3979020546"
            },
            "orbiting_body": "Earth"
        }
    ],
    "orbital_data": {
        "orbit_id": "8",
        "orbit_determination_date": "2017-04-06 09:14:07",
        "first_observation_date": "2003-05-03",
        "last_observation_date": "2003-06-01",
        "data_arc_in_days": 29,
        "observations_used": 35,
        "orbit_uncertainty": "8",
        "minimum_orbit_intersection": ".247405",
        "jupiter_tisserand_invariant": "3.461",
        "epoch_osculation": "2452768.5",
        "eccentricity": ".4519171012862733",
        "semi_major_axis": "2.282414065258668",
        "inclination": "2.184694797227889",
        "ascending_node_longitude": "238.8726623726491",
        "orbital_period": "1259.476531104513",
        "perihelion_distance": "1.250952116951952",
        "perihelion_argument": "328.5640311492936",
        "aphelion_distance": "3.313876013565385",
        "perihelion_time": "2452746.352413388209",
        "mean_anomaly": "6.330511909779394",
        "mean_motion": ".2858330354788696",
        "equinox": "J2000",
        "orbit_class": {
            "orbit_class_type": "AMO",
            "orbit_class_description": "Near-Earth asteroid orbits similar to that of 1221 Amor",
            "orbit_class_range": "1.017 AU < q (perihelion) < 1.3 AU"
        }
    },
    "is_sentry_object": false
}